		ArgOfPericenter	314.15
		Epoch	1958005.949041170000
	}
	Albedo	1.0
}

  "µS-79-70-150" "Sol/Earth"
{
	Class "spacecraft"
	Mesh "satellite.3ds"
	Radius 0.005

	EllipticalOrbit
	{
		Period		0.0744882  # days
		SemiMajorAxis	7478.1
		Eccentricity	0.0001
		Inclination	79.0
		AscendingNode	149
		ArgOfPericenter	314.15
		Epoch	1958005.949041170000
	}
	Albedo	1.0
}

  "µS-32-80-150" "Sol/Earth"
{
	Class "spacecraft"
	Mesh "satellite.3ds"
	Radius 0.005

	EllipticalOrbit
	{
		Period		0.0744882  # days
		SemiMajorAxis	7478.1
		Eccentricity	0.0001
		Inclination	32.0
		AscendingNode	112
		ArgOfPericenter	314.15
		Epoch	1944598.074041170000
	}
	Albedo	1.0
}

  "µS-48-80-150" "Sol/Earth"
{
	Class "spacecraft"
	Mesh "satellite.3ds"
	Radius 0.005

	EllipticalOrbit
	{
		Period		0.0744882  # days
		SemiMajorAxis	7478.1
		Eccentricity	0.0001
		Inclination	48.0
		AscendingNode	128
		ArgOfPericenter	314.15
		Epoch	1944598.074041170000
	}
	Albedo	1.0
}

  "µS-79-80-150" "Sol/Earth"
{
	Class "spacecraft"
	Mesh "satellite.3ds"
	Radius 0.005

	EllipticalOrbit
	{
		Period		0.0744882  # days
		SemiMajorAxis	7478.1
		Eccentricity	0.0001
		Inclination	79.0
		AscendingNode	159
		ArgOfPericenter	314.15
		Epoch	1944598.074041170000
	}
	Albedo	1.0
}

  "µS-32-90-150" "Sol/Earth"
{
	Class "spacecraft"
	Mesh "satellite.3ds"
	Radius 0.005

	EllipticalOrbit
	{
		Period		0.0744882  # days
		SemiMajorAxis	7478.1
		Eccentricity	0.0001
		Inclination	32.0
		AscendingNode	122
		ArgOfPericenter	314.15
		Epoch	1931190.199041170000
	}
	Albedo	1.0
}

  "µS-48-90-150" "Sol/Earth"
{
	Class "spacecraft"
	Mesh "satellite.3ds"
	Radius 0.005

	EllipticalOrbit
	{
		Period		0.0744882  # days
		SemiMajorAxis	7478.1
		Eccentricity	0.0001
		Inclination	48.0
		AscendingNode	138
		ArgOfPericenter	314.15
		Epoch	1931190.199041170000
	}
	Albedo	1.0
}

  "µS-79-90-150" "Sol/Earth"
{
	Class "spacecraft"
	Mesh "satellite.3ds"
	Radius 0.005

	EllipticalOrbit
	{
		Period		0.0744882  # days
		SemiMajorAxis	7478.1
		Eccentricity	0.0001
		Inclination	79.0
		AscendingNode	169
		ArgOfPericenter	314.15
		Epoch	1931190.199041170000
	}
	Albedo	1.0
}

  "µS-32-100-150" "Sol/Earth"
{
	Class "spacecraft"
	Mesh "satellite.3ds"
	Radius 0.005

	EllipticalOrbit
	{
		Period		0.0744882  # days
		SemiMajorAxis	7478.1
		Eccentricity	0.0001
		Inclination	32.0
		AscendingNode	132
		ArgOfPericenter	314.15
		Epoch	1917782.324041170000
	}
	Albedo	1.0
}

  "µS-48-100-150" "Sol/Earth"
{
	Class "spacecraft"
	Mesh "satellite.3ds"
	Radius 0.005

	EllipticalOrbit
	{
		Period		0.0744882  # days
		SemiMajorAxis	7478.1
		Eccentricity	0.0001
		Inclination	48.0
		AscendingNode	148
		ArgOfPericenter	314.15
		Epoch	1917782.324041170000
	}
	Albedo	1.0
}

  "µS-79-100-150" "Sol/Earth"
{
	Class "spacecraft"
	Mesh "satellite.3ds"
	Radius 0.005

	EllipticalOrbit
	{
		Period		0.0744882  # days
		SemiMajorAxis	7478.1
		Eccentricity	0.0001
		Inclination	79.0
		AscendingNode	179
		ArgOfPericenter	314.15
		Epoch	1917782.324041170000
	}
	Albedo	1.0
}

  "µS-32-110-150" "Sol/Earth"
{
	Class "spacecraft"
	Mesh "satellite.3ds"
	Radius 0.005

	EllipticalOrbit
	{
		Period		0.0744882  # days
		SemiMajorAxis	7478.1
		Eccentricity	0.0001
		Inclination	32.0
		AscendingNode	142
		ArgOfPericenter	314.15
		Epoch	1904374.449041170000
	}
	Albedo	1.0
}

  "µS-48-110-150" "Sol/Earth"
{
	Class "spacecraft"
	Mesh "satellite.3ds"
	Radius 0.005

	EllipticalOrbit
	{
		Period		0.0744882  # days
		SemiMajorAxis	7478.1
		Eccentricity	0.0001
		Inclination	48.0
		AscendingNode	158
		ArgOfPericenter	314.15
		Epoch	1904374.449041170000
	}
	Albedo	1.0
}

  "µS-79-110-150" "Sol/Earth"
{
	Class "spacecraft"
	Mesh "satellite.3ds"
	Radius 0.005

	EllipticalOrbit
	{
		Period		0.0744882  # days
		SemiMajorAxis	7478.1
		Eccentricity	0.0001
		Inclination	79.0
		AscendingNode	189
		ArgOfPericenter	314.15
		Epoch	1904374.449041170000
	}
	Albedo	1.0
}

  "µS-32-120-150" "Sol/Earth"
{
	Class "spacecraft"
	Mesh "satellite.3ds"
	Radius 0.005

	EllipticalOrbit
	{
		Period		0.0744882  # days
		SemiMajorAxis	7478.1
		Eccentricity	0.0001
		Inclination	32.0
		AscendingNode	152
		ArgOfPericenter	314.15
		Epoch	1890966.574041170000
	}
	Albedo	1.0
}

  "µS-48-120-150" "Sol/Earth"
{
	Class "spacecraft"
	Mesh "satellite.3ds"
	Radius 0.005

	EllipticalOrbit
	{
		Period		0.0744882  # days
		SemiMajorAxis	7478.1
		Eccentricity	0.0001
		Inclination	48.0
		AscendingNode	168
		ArgOfPericenter	314.15
		Epoch	1890966.574041170000
	}
	Albedo	1.0
}

  "µS-79-120-150" "Sol/Earth"
{
	Class "spacecraft"
	Mesh "satellite.3ds"
	Radius 0.005

	EllipticalOrbit
	{
		Period		0.0744882  # days
		SemiMajorAxis	7478.1
		Eccentricity	0.0001
		Inclination	79.0
		AscendingNode	199
		ArgOfPericenter	314.15
		Epoch	1890966.574041170000
	}
	Albedo	1.0
}

  "µS-32-130-150" "Sol/Earth"
{
	Class "spacecraft"
	Mesh "satellite.3ds"
	Radius 0.005

	EllipticalOrbit
	{
		Period		0.0744882  # days
		SemiMajorAxis	7478.1
		Eccentricity	0.0001
		Inclination	32.0
		AscendingNode	162
		ArgOfPericenter	314.15
		Epoch	1877558.699041170000
	}
	Albedo	1.0
}

  "µS-48-130-150" "Sol/Earth"
{
	Class "spacecraft"
	Mesh "satellite.3ds"
	Radius 0.005

	EllipticalOrbit
	{
		Period		0.0744882  # days
		SemiMajorAxis	7478.1
		Eccentricity	0.0001
		Inclination	48.0
		AscendingNode	178
		ArgOfPericenter	314.15
		Epoch	1877558.699041170000
	}
	Albedo	1.0
}

  "µS-79-130-150" "Sol/Earth"
{
	Class "spacecraft"
	Mesh "satellite.3ds"
	Radius 0.005

	EllipticalOrbit
	{
		Period		0.0744882  # days
		SemiMajorAxis	7478.1
		Eccentricity	0.0001
		Inclination	79.0
		AscendingNode	209
		ArgOfPericenter	314.15
		Epoch	1877558.699041170000
	}
	Albedo	1.0
}

  "µS-32-140-150" "Sol/Earth"
{
	Class "spacecraft"
	Mesh "satellite.3ds"
	Radius 0.005

	EllipticalOrbit
	{
		Period		0.0744882  # days
		SemiMajorAxis	7478.1
		Eccentricity	0.0001
		Inclination	32.0
		AscendingNode	172
		ArgOfPericenter	314.15
		Epoch	1864150.824041170000
	}
	Albedo	1.0
}

  "µS-48-140-150" "Sol/Earth"
{
	Class "spacecraft"
	Mesh "satellite.3ds"
	Radius 0.005

	EllipticalOrbit
	{
		Period		0.0744882  # days
		SemiMajorAxis	7478.1
		Eccentricity	0.0001
		Inclination	48.0
		AscendingNode	188
		ArgOfPericenter	314.15
		Epoch	1864150.824041170000
	}
	Albedo	1.0
}

  "µS-79-140-150" "Sol/Earth"
{
	Class "spacecraft"
	Mesh "satellite.3ds"
	Radius 0.005

	EllipticalOrbit
	{
		Period		0.0744882  # days
		SemiMajorAxis	7478.1
		Eccentricity	0.0001
		Inclination	79.0
		AscendingNode	219
		ArgOfPericenter	314.15
		Epoch	1864150.824041170000
	}
	Albedo	1.0
}

  "µS-32-150-150" "Sol/Earth"
{
	Class "spacecraft"
	Mesh "satellite.3ds"
	Radius 0.005

	EllipticalOrbit
	{
		Period		0.0744882  # days
		SemiMajorAxis	7478.1
		Eccentricity	0.0001
		Inclination	32.0
		AscendingNode	182
		ArgOfPericenter	314.15
		Epoch	1850742.949041170000
	}
	Albedo	1.0
}

  "µS-48-150-150" "Sol/Earth"
{
	Class "spacecraft"
	Mesh "satellite.3ds"
	Radius 0.005

	EllipticalOrbit
	{
		Period		0.0744882  # days
		SemiMajorAxis	7478.1
		Eccentricity	0.0001
		Inclination	48.0
		AscendingNode	198
		ArgOfPericenter	314.15
		Epoch	1850742.949041170000
	}
	Albedo	1.0
}

  "µS-79-150-150" "Sol/Earth"
{
	Class "spacecraft"
	Mesh "satellite.3ds"
	Radius 0.005

	EllipticalOrbit
	{
		Period		0.0744882  # days
		SemiMajorAxis	7478.1
		Eccentricity	0.0001
		Inclination	79.0
		AscendingNode	229
		ArgOfPericenter	314.15
		Epoch	1850742.949041170000
	}
	Albedo	1.0
}

  "µS-32-160-150" "Sol/Earth"
{
	Class "spacecraft"
	Mesh "satellite.3ds"
	Radius 0.005

	EllipticalOrbit
	{
		Period		0.0744882  # days
		SemiMajorAxis	7478.1
		Eccentricity	0.0001
		Inclination	32.0
		AscendingNode	192
		ArgOfPericenter	314.15
		Epoch	1837335.074041170000
	}
	Albedo	1.0
}

  "µS-48-160-150" "Sol/Earth"
{
	Class "spacecraft"
	Mesh "satellite.3ds"
	Radius 0.005

	EllipticalOrbit
	{
		Period		0.0744882  # days
		SemiMajorAxis	7478.1
		Eccentricity	0.0001
		Inclination	48.0
		AscendingNode	208
		ArgOfPericenter	314.15
		Epoch	1837335.074041170000
	}
	Albedo	1.0
}

  "µS-79-160-150" "Sol/Earth"
{
	Class "spacecraft"
	Mesh "satellite.3ds"
	Radius 0.005

	EllipticalOrbit
	{
		Period		0.0744882  # days
		SemiMajorAxis	7478.1
		Eccentricity	0.0001
		Inclination	79.0
		AscendingNode	239
		ArgOfPericenter	314.15
		Epoch	1837335.074041170000
	}
	Albedo	1.0
}

  "µS-32-170-150" "Sol/Earth"
{
	Class "spacecraft"
	Mesh "satellite.3ds"
	Radius 0.005

	EllipticalOrbit
	{
		Period		0.0744882  # days
		SemiMajorAxis	7478.1
		Eccentricity	0.0001
		Inclination	32.0
		AscendingNode	202
		ArgOfPericenter	314.15
		Epoch	1823927.199041170000
	}
	Albedo	1.0
}

  "µS-48-170-150" "Sol/Earth"
{
	Class "spacecraft"
	Mesh "satellite.3ds"
	Radius 0.005

	EllipticalOrbit
	{
		Period		0.0744882  # days
		SemiMajorAxis	7478.1
		Eccentricity	0.0001
		Inclination	48.0
		AscendingNode	218
		ArgOfPericenter	314.15
		Epoch	1823927.199041170000
	}
	Albedo	1.0
}

  "µS-79-170-150" "Sol/Earth"
{
	Class "spacecraft"
	Mesh "satellite.3ds"
	Radius 0.005

	EllipticalOrbit
	{
		Period		0.0744882  # days
		SemiMajorAxis	7478.1
		Eccentricity	0.0001
		Inclination	79.0
		AscendingNode	249
		ArgOfPericenter	314.15
		Epoch	1823927.199041170000
	}
	Albedo	1.0
}

  "µS-32-180-150" "Sol/Earth"
{
	Class "spacecraft"
	Mesh "satellite.3ds"
	Radius 0.005

	EllipticalOrbit
	{
		Period		0.0744882  # days
		SemiMajorAxis	7478.1
		Eccentricity	0.0001
		Inclination	32.0
		AscendingNode	212
		ArgOfPericenter	314.15
		Epoch	1810519.324041170000
	}
	Albedo	1.0
}

  "µS-48-180-150" "Sol/Earth"
{
	Class "spacecraft"
	Mesh "satellite.3ds"
	Radius 0.005

	EllipticalOrbit
	{
		Period		0.0744882  # days
		SemiMajorAxis	7478.1
		Eccentricity	0.0001
		Inclination	48.0
		AscendingNode	228
		ArgOfPericenter	314.15
		Epoch	1810519.324041170000
	}
	Albedo	1.0
}

  "µS-79-180-150" "Sol/Earth"
{
	Class "spacecraft"
	Mesh "satellite.3ds"
	Radius 0.005

	EllipticalOrbit
	{
		Period		0.0744882  # days
		SemiMajorAxis	7478.1
		Eccentricity	0.0001
		Inclination	79.0
		AscendingNode	259
		ArgOfPericenter	314.15
